ORBITAL FACTORY 2 (OF-2)
1 45113U 19071C   20273.55617639  .00003967  00000-0  13098-3 0  9997
2 45113  51.6418 220.5318 0013588  73.2537 286.9935 15.33723023 37106
M2 PATHFINDER           
1 45727U 20037E   20273.54629565  .00000169  00000-0  22520-4 0  9994
2 45727  97.7026  91.2423 0012153 318.1207  41.9108 14.91231635 13533
